start=new Date('2022-04-12T00:00:00.000Z').valueOf();
sats=[{"TIME_SYSTEM":"UTC","ELEMENT_SET_NO":"999","MEAN_MOTION_DDOT":"0.0000000000000","NORAD_CAT_ID":"48000","EPHEMERIS_TYPE":"0","OBJECT_TYPE":"PAYLOAD","BSTAR":"-0.00514510000000","RA_OF_ASC_NODE":"171.1351","REF_FRAME":"TEME","SITE":"AFETR","TLE_LINE1":"1 48000U 21024Z   22101.91667824 -.00076097  00000-0 -51451-2 0  9999","CENTER_NAME":"EARTH","GP_ID":"201017156","MEAN_ANOMALY":"257.9269","INCLINATION":"53.0548","COUNTRY_CODE":"US","DECAY_DATE":null,"FILE":"3397723","PERIAPSIS":"545.666","SEMIMAJOR_AXIS":"6925.363","LAUNCH_DATE":"2021-03-24","RCS_SIZE":"LARGE","OBJECT_NAME":"STARLINK-2270","REV_AT_EPOCH":"358","CLASSIFICATION_TYPE":"U","MEAN_MOTION_DOT":"-0.00076097","EPOCH":"2022-04-11T22:00:00.999936","MEAN_MOTION":"15.06395219","PERIOD":"95.592","MEAN_ELEMENT_THEORY":"SGP4","OBJECT_ID":"2021-024Z","ARG_OF_PERICENTER":"29.4684","TLE_LINE2":"2 48000  53.0548 171.1351 0002256  29.4684 257.9269 15.06395219  3583","ECCENTRICITY":"0.00022560","APOAPSIS":"548.791"},{"REF_FRAME":"TEME","SITE":"AFETR","TLE_LINE1":"1 48002U 21024AB  22101.91667824 -.00099670  00000-0 -67656-2 0  9997","CENTER_NAME":"EARTH","GP_ID":"201015904","MEAN_ANOMALY":"136.6429","INCLINATION":"53.0543","COUNTRY_CODE":"US","DECAY_DATE":null,"FILE":"3397723","PERIAPSIS":"546.117","SEMIMAJOR_AXIS":"6925.331","ELEMENT_SET_NO":"999","TIME_SYSTEM":"UTC","NORAD_CAT_ID":"48002","MEAN_MOTION_DDOT":"0.0000000000000","EPHEMERIS_TYPE":"0","OBJECT_TYPE":"PAYLOAD","BSTAR":"-0.00676560000000","RA_OF_ASC_NODE":"191.1364","EPOCH":"2022-04-11T22:00:00.999936","MEAN_MOTION":"15.06405770","MEAN_ELEMENT_THEORY":"SGP4","PERIOD":"95.592","ARG_OF_PERICENTER":"60.7574","OBJECT_ID":"2021-024AB","TLE_LINE2":"2 48002  53.0543 191.1364 0001558  60.7574 136.6429 15.06405770  3592","ECCENTRICITY":"0.00015580","APOAPSIS":"548.275","LAUNCH_DATE":"2021-03-24","RCS_SIZE":"LARGE","OBJECT_NAME":"STARLINK-2265","REV_AT_EPOCH":"359","CLASSIFICATION_TYPE":"U","MEAN_MOTION_DOT":"-0.00099670"},{"MEAN_MOTION_DOT":"-0.00000134","CLASSIFICATION_TYPE":"U","OBJECT_NAME":"STARLINK-2263","RCS_SIZE":"LARGE","REV_AT_EPOCH":"5928","LAUNCH_DATE":"2021-03-24","TLE_LINE2":"2 48003  53.0568 266.5226 0001694  62.3249 297.7912 15.06385029 59289","APOAPSIS":"548.433","ECCENTRICITY":"0.00016940","MEAN_MOTION":"15.06385029","ARG_OF_PERICENTER":"62.3249","OBJECT_ID":"2021-024AC","MEAN_ELEMENT_THEORY":"SGP4","PERIOD":"95.593","EPOCH":"2022-04-11T19:58:02.131968","RA_OF_ASC_NODE":"266.5226","OBJECT_TYPE":"PAYLOAD","EPHEMERIS_TYPE":"0","BSTAR":"0.00000988190000","NORAD_CAT_ID":"48003","MEAN_MOTION_DDOT":"0.0000000000000","ELEMENT_SET_NO":"999","TIME_SYSTEM":"UTC","PERIAPSIS":"546.086","SEMIMAJOR_AXIS":"6925.394","COUNTRY_CODE":"US","MEAN_ANOMALY":"297.7912","INCLINATION":"53.0568","FILE":"3397723","DECAY_DATE":null,"CENTER_NAME":"EARTH","GP_ID":"201016154","SITE":"AFETR","REF_FRAME":"TEME","TLE_LINE1":"1 48003U 21024AC  22101.83196912 -.00000134  00000-0  98819-5 0  9998"},{"CENTER_NAME":"EARTH","GP_ID":"201016906","REF_FRAME":"TEME","SITE":"AFETR","TLE_LINE1":"1 48005U 21024AE  22101.74258230  .00000726  00000-0  67648-4 0  9993","PERIAPSIS":"546.104","SEMIMAJOR_AXIS":"6925.396","INCLINATION":"53.0547","MEAN_ANOMALY":"303.4284","COUNTRY_CODE":"US","DECAY_DATE":null,"FILE":"3397723","EPHEMERIS_TYPE":"0","OBJECT_TYPE":"PAYLOAD","BSTAR":"0.00006764800000","TIME_SYSTEM":"UTC","ELEMENT_SET_NO":"999","MEAN_MOTION_DDOT":"0.0000000000000","NORAD_CAT_ID":"48005","RA_OF_ASC_NODE":"236.9213","EPOCH":"2022-04-11T17:49:19.110720","TLE_LINE2":"2 48005  53.0547 236.9213 0001670  56.6865 303.4284 15.06384542 59690","ECCENTRICITY":"0.00016700","APOAPSIS":"548.417","MEAN_MOTION":"15.06384542","MEAN_ELEMENT_THEORY":"SGP4","PERIOD":"95.593","OBJECT_ID":"2021-024AE","ARG_OF_PERICENTER":"56.6865","RCS_SIZE":"LARGE","OBJECT_NAME":"STARLINK-2254","REV_AT_EPOCH":"5969","LAUNCH_DATE":"2021-03-24","CLASSIFICATION_TYPE":"U","MEAN_MOTION_DOT":"0.00000726"},{"MEAN_MOTION_DOT":"-0.00054369","CLASSIFICATION_TYPE":"U","LAUNCH_DATE":"2021-03-24","OBJECT_NAME":"STARLINK-2271","RCS_SIZE":"LARGE","REV_AT_EPOCH":"359","MEAN_MOTION":"15.06378691","OBJECT_ID":"2021-024AH","ARG_OF_PERICENTER":"62.6253","MEAN_ELEMENT_THEORY":"SGP4","PERIOD":"95.593","TLE_LINE2":"2 48008  53.0540 171.1294 0001541  62.6253  44.7485 15.06378691  3594","APOAPSIS":"548.346","ECCENTRICITY":"0.00015410","EPOCH":"2022-04-11T22:00:00.999936","RA_OF_ASC_NODE":"171.1294","MEAN_MOTION_DDOT":"0.0000000000000","NORAD_CAT_ID":"48008","ELEMENT_SET_NO":"999","TIME_SYSTEM":"UTC","OBJECT_TYPE":"PAYLOAD","EPHEMERIS_TYPE":"0","BSTAR":"-0.00366120000000","COUNTRY_CODE":"US","INCLINATION":"53.0540","MEAN_ANOMALY":"44.7485","FILE":"3397723","DECAY_DATE":null,"SEMIMAJOR_AXIS":"6925.414","PERIAPSIS":"546.212","SITE":"AFETR","REF_FRAME":"TEME","TLE_LINE1":"1 48008U 21024AH  22101.91667824 -.00054369  00000-0 -36612-2 0  9997","GP_ID":"201017656","CENTER_NAME":"EARTH"},{"TLE_LINE1":"1 48009U 21024AJ  22101.82274053 -.00000866  00000-0 -39243-4 0  9994","SITE":"AFETR","REF_FRAME":"TEME","CENTER_NAME":"EARTH","GP_ID":"201016404","FILE":"3397723","DECAY_DATE":null,"COUNTRY_CODE":"US","INCLINATION":"53.0553","MEAN_ANOMALY":"318.1133","PERIAPSIS":"545.987","SEMIMAJOR_AXIS":"6925.364","NORAD_CAT_ID":"48009","MEAN_MOTION_DDOT":"0.0000000000000","TIME_SYSTEM":"UTC","ELEMENT_SET_NO":"999","BSTAR":"-0.00003924300000","OBJECT_TYPE":"PAYLOAD","EPHEMERIS_TYPE":"0","RA_OF_ASC_NODE":"246.5376","EPOCH":"2022-04-11T19:44:44.781792","OBJECT_ID":"2021-024AJ","ARG_OF_PERICENTER":"41.9994","MEAN_ELEMENT_THEORY":"SGP4","PERIOD":"95.592","MEAN_MOTION":"15.06394977","APOAPSIS":"548.471","ECCENTRICITY":"0.00017930","TLE_LINE2":"2 48009  53.0553 246.5376 0001793  41.9994 318.1133 15.06394977 59570","LAUNCH_DATE":"2021-03-24","REV_AT_EPOCH":"5957","OBJECT_NAME":"STARLINK-2153","RCS_SIZE":"LARGE","MEAN_MOTION_DOT":"-0.00000866","CLASSIFICATION_TYPE":"U"},{"EPOCH":"2022-04-11T18:27:46.872000","PERIOD":"95.592","MEAN_ELEMENT_THEORY":"SGP4","ARG_OF_PERICENTER":"76.7505","OBJECT_ID":"2021-024AK","MEAN_MOTION":"15.06402657","ECCENTRICITY":"0.00016060","APOAPSIS":"548.318","TLE_LINE2":"2 48010  53.0548 266.7937 0001606  76.7505 283.3663 15.06402657 59284","LAUNCH_DATE":"2021-03-24","REV_AT_EPOCH":"5928","RCS_SIZE":"LARGE","OBJECT_NAME":"STARLINK-2226","CLASSIFICATION_TYPE":"U","MEAN_MOTION_DOT":"0.00003262","TLE_LINE1":"1 48010U 21024AK  22101.76929250  .00003262  00000-0  23777-3 0  9990","REF_FRAME":"TEME","SITE":"AFETR","CENTER_NAME":"EARTH","GP_ID":"201016654","DECAY_DATE":null,"FILE":"3397723","INCLINATION":"53.0548","MEAN_ANOMALY":"283.3663","COUNTRY_CODE":"US","PERIAPSIS":"546.093","SEMIMAJOR_AXIS":"6925.340","ELEMENT_SET_NO":"999","TIME_SYSTEM":"UTC","MEAN_MOTION_DDOT":"0.0000000000000","NORAD_CAT_ID":"48010","BSTAR":"0.00023777000000","EPHEMERIS_TYPE":"0","OBJECT_TYPE":"PAYLOAD","RA_OF_ASC_NODE":"266.7937"},{"BSTAR":"0.00009255400000","EPHEMERIS_TYPE":"0","OBJECT_TYPE":"PAYLOAD","TIME_SYSTEM":"UTC","ELEMENT_SET_NO":"999","NORAD_CAT_ID":"48011","MEAN_MOTION_DDOT":"0.0000000000000","RA_OF_ASC_NODE":"246.7054","CENTER_NAME":"EARTH","GP_ID":"201017406","TLE_LINE1":"1 48011U 21024AL  22101.79231064  .00001097  00000-0  92554-4 0  9997","REF_FRAME":"TEME","SITE":"AFETR","PERIAPSIS":"546.002","SEMIMAJOR_AXIS":"6925.343","DECAY_DATE":null,"FILE":"3397723","INCLINATION":"53.0557","MEAN_ANOMALY":"299.7404","COUNTRY_CODE":"US","REV_AT_EPOCH":"5962","RCS_SIZE":"LARGE","OBJECT_NAME":"STARLINK-2272","LAUNCH_DATE":"2021-03-24","CLASSIFICATION_TYPE":"U","MEAN_MOTION_DOT":"0.00001097","EPOCH":"2022-04-11T19:00:55.639296","ECCENTRICITY":"0.00017410","APOAPSIS":"548.413","TLE_LINE2":"2 48011  53.0557 246.7054 0001741  60.3758 299.7404 15.06401942 59620","MEAN_ELEMENT_THEORY":"SGP4","PERIOD":"95.592","ARG_OF_PERICENTER":"60.3758","OBJECT_ID":"2021-024AL","MEAN_MOTION":"15.06401942"},{"FILE":"3397723","DECAY_DATE":null,"COUNTRY_CODE":"US","MEAN_ANOMALY":"325.8839","INCLINATION":"53.0626","PERIAPSIS":"442.256","SEMIMAJOR_AXIS":"6821.708","TLE_LINE1":"1 48012U 21024AM  22101.61567456  .00000532  00000-0  22492-4 0  9993","SITE":"AFETR","REF_FRAME":"TEME","CENTER_NAME":"EARTH","GP_ID":"201017157","RA_OF_ASC_NODE":"210.7627","NORAD_CAT_ID":"48012","MEAN_MOTION_DDOT":"0.0000000000000","ELEMENT_SET_NO":"999","TIME_SYSTEM":"UTC","BSTAR":"0.00002249200000","OBJECT_TYPE":"PAYLOAD","EPHEMERIS_TYPE":"0","OBJECT_ID":"2021-024AM","ARG_OF_PERICENTER":"34.2289","PERIOD":"93.454","MEAN_ELEMENT_THEORY":"SGP4","MEAN_MOTION":"15.40859614","APOAPSIS":"444.890","ECCENTRICITY":"0.00019300","TLE_LINE2":"2 48012  53.0626 210.7627 0001930  34.2289 325.8839 15.40859614 60114","EPOCH":"2022-04-11T14:46:34.281984","MEAN_MOTION_DOT":"0.00000532","CLASSIFICATION_TYPE":"U","LAUNCH_DATE":"2021-03-24","REV_AT_EPOCH":"6011","OBJECT_NAME":"STARLINK-2216","RCS_SIZE":"LARGE"},{"LAUNCH_DATE":"2021-03-24","OBJECT_NAME":"STARLINK-2243","RCS_SIZE":"LARGE","REV_AT_EPOCH":"5976","MEAN_MOTION_DOT":"0.00002135","CLASSIFICATION_TYPE":"U","EPOCH":"2022-04-11T16:22:23.165184","MEAN_MOTION":"15.06404374","ARG_OF_PERICENTER":"55.1598","OBJECT_ID":"2021-024AN","PERIOD":"95.592","MEAN_ELEMENT_THEORY":"SGP4","TLE_LINE2":"2 48013  53.0538 232.1993 0001830  55.1598 304.9563 15.06404374 59767","APOAPSIS":"548.467","ECCENTRICITY":"0.00018300","NORAD_CAT_ID":"48013","MEAN_MOTION_DDOT":"0.0000000000000","ELEMENT_SET_NO":"999","TIME_SYSTEM":"UTC","OBJECT_TYPE":"PAYLOAD","EPHEMERIS_TYPE":"0","BSTAR":"0.00016220000000","RA_OF_ASC_NODE":"232.1993","SITE":"AFETR","REF_FRAME":"TEME","TLE_LINE1":"1 48013U 21024AN  22101.68221256  .00002135  00000-0  16220-3 0  9998","CENTER_NAME":"EARTH","GP_ID":"201015905","COUNTRY_CODE":"US","INCLINATION":"53.0538","MEAN_ANOMALY":"304.9563","FILE":"3397723","DECAY_DATE":null,"PERIAPSIS":"545.933","SEMIMAJOR_AXIS":"6925.335"}];
